start=new Date('2022-08-19T00:00:00.000Z').valueOf();
sats=[{"TLE_LINE1":"1 46692U 20073Y   22230.66289963  .00009683  00000-0  66753-3 0  9993","SITE":"AFETR","EPOCH":"2022-08-18T15:54:34.528032","COUNTRY_CODE":"US","EPHEMERIS_TYPE":"0","PERIAPSIS":"546.152","MEAN_MOTION_DDOT":"0.0000000000000","ELEMENT_SET_NO":"999","TIME_SYSTEM":"UTC","REF_FRAME":"TEME","MEAN_MOTION":"15.06427518","RCS_SIZE":"LARGE","APOAPSIS":"548.106","PERIOD":"95.590","OBJECT_NAME":"STARLINK-1791","MEAN_MOTION_DOT":"0.00009683","ECCENTRICITY":"0.00014110","MEAN_ELEMENT_THEORY":"SGP4","CLASSIFICATION_TYPE":"U","OBJECT_TYPE":"PAYLOAD","REV_AT_EPOCH":"10112","LAUNCH_DATE":"2020-10-18","ARG_OF_PERICENTER":"100.2859","CENTER_NAME":"EARTH","NORAD_CAT_ID":"46692","OBJECT_ID":"2020-073Y","DECAY_DATE":null,"MEAN_ANOMALY":"259.8290","INCLINATION":"53.0542","TLE_LINE2":"2 46692  53.0542 328.1686 0001411 100.2859 259.8290 15.06427518101123","SEMIMAJOR_AXIS":"6925.264","GP_ID":"210473772","BSTAR":"0.00066753000000","RA_OF_ASC_NODE":"328.1686","FILE":"3539615"},{"PERIAPSIS":"546.353","EPHEMERIS_TYPE":"0","SITE":"AFETR","TLE_LINE1":"1 46693U 20073Z   22230.48183351  .00001395  00000-0  11251-3 0  9993","COUNTRY_CODE":"US","EPOCH":"2022-08-18T11:33:50.415264","MEAN_MOTION":"15.06401553","RCS_SIZE":"LARGE","APOAPSIS":"548.065","MEAN_MOTION_DOT":"0.00001395","PERIOD":"95.592","OBJECT_NAME":"STARLINK-1792","ECCENTRICITY":"0.00012360","MEAN_MOTION_DDOT":"0.0000000000000","TIME_SYSTEM":"UTC","ELEMENT_SET_NO":"999","REF_FRAME":"TEME","OBJECT_TYPE":"PAYLOAD","REV_AT_EPOCH":"10130","CENTER_NAME":"EARTH","LAUNCH_DATE":"2020-10-18","ARG_OF_PERICENTER":"80.9747","MEAN_ELEMENT_THEORY":"SGP4","CLASSIFICATION_TYPE":"U","TLE_LINE2":"2 46693  53.0560 314.0042 0001236  80.9747 279.1382 15.06401553101307","INCLINATION":"53.0560","BSTAR":"0.00011251000000","SEMIMAJOR_AXIS":"6925.344","GP_ID":"210440023","RA_OF_ASC_NODE":"314.0042","FILE":"3539281","OBJECT_ID":"2020-073Z","NORAD_CAT_ID":"46693","MEAN_ANOMALY":"279.1382","DECAY_DATE":null},{"PERIAPSIS":"546.409","EPHEMERIS_TYPE":"0","SITE":"AFETR","TLE_LINE1":"1 46694U 20073AA  22230.43944168  .00001845  00000-0  14270-3 0  9994","COUNTRY_CODE":"US","EPOCH":"2022-08-18T10:32:47.761152","APOAPSIS":"547.968","MEAN_MOTION":"15.06408193","RCS_SIZE":"LARGE","OBJECT_NAME":"STARLINK-1793","PERIOD":"95.592","MEAN_MOTION_DOT":"0.00001845","ECCENTRICITY":"0.00011260","TIME_SYSTEM":"UTC","ELEMENT_SET_NO":"999","MEAN_MOTION_DDOT":"0.0000000000000","REF_FRAME":"TEME","OBJECT_TYPE":"PAYLOAD","CENTER_NAME":"EARTH","LAUNCH_DATE":"2020-10-18","ARG_OF_PERICENTER":"117.7148","REV_AT_EPOCH":"10206","MEAN_ELEMENT_THEORY":"SGP4","CLASSIFICATION_TYPE":"U","BSTAR":"0.00014270000000","GP_ID":"210449727","SEMIMAJOR_AXIS":"6925.323","TLE_LINE2":"2 46694  53.0537 294.1944 0001126 117.7148 242.3955 15.06408193102062","INCLINATION":"53.0537","FILE":"3539474","RA_OF_ASC_NODE":"294.1944","OBJECT_ID":"2020-073AA","NORAD_CAT_ID":"46694","MEAN_ANOMALY":"242.3955","DECAY_DATE":null},{"NORAD_CAT_ID":"46696","OBJECT_ID":"2020-073AC","DECAY_DATE":null,"MEAN_ANOMALY":"291.7072","SEMIMAJOR_AXIS":"6925.310","GP_ID":"210450236","BSTAR":"0.00043140000000","INCLINATION":"53.0530","TLE_LINE2":"2 46696  53.0530 294.1092 0001530  68.4080 291.7072 15.06412615102069","FILE":"3539492","RA_OF_ASC_NODE":"294.1092","MEAN_ELEMENT_THEORY":"SGP4","CLASSIFICATION_TYPE":"U","OBJECT_TYPE":"PAYLOAD","ARG_OF_PERICENTER":"68.4080","LAUNCH_DATE":"2020-10-18","CENTER_NAME":"EARTH","REV_AT_EPOCH":"10206","ELEMENT_SET_NO":"999","TIME_SYSTEM":"UTC","MEAN_MOTION_DDOT":"0.0000000000000","REF_FRAME":"TEME","APOAPSIS":"548.234","MEAN_MOTION":"15.06412615","RCS_SIZE":"LARGE","PERIOD":"95.591","MEAN_MOTION_DOT":"0.00006152","OBJECT_NAME":"STARLINK-1795","ECCENTRICITY":"0.00015300","TLE_LINE1":"1 46696U 20073AC  22230.45787474  .00006152  00000-0  43140-3 0  9997","SITE":"AFETR","EPOCH":"2022-08-18T10:59:20.377536","COUNTRY_CODE":"US","EPHEMERIS_TYPE":"0","PERIAPSIS":"546.115"},{"TLE_LINE1":"1 46698U 20073AE  22230.44771670  .00001192  00000-0  98906-4 0  9999","SITE":"AFETR","EPOCH":"2022-08-18T10:44:42.722880","COUNTRY_CODE":"US","EPHEMERIS_TYPE":"0","PERIAPSIS":"546.201","MEAN_MOTION_DDOT":"0.0000000000000","ELEMENT_SET_NO":"999","TIME_SYSTEM":"UTC","REF_FRAME":"TEME","RCS_SIZE":"LARGE","MEAN_MOTION":"15.06402121","APOAPSIS":"548.213","PERIOD":"95.592","ECCENTRICITY":"0.00014530","MEAN_MOTION_DOT":"0.00001192","OBJECT_NAME":"STARLINK-1797","MEAN_ELEMENT_THEORY":"SGP4","CLASSIFICATION_TYPE":"U","OBJECT_TYPE":"PAYLOAD","REV_AT_EPOCH":"10130","LAUNCH_DATE":"2020-10-18","ARG_OF_PERICENTER":"120.5644","CENTER_NAME":"EARTH","NORAD_CAT_ID":"46698","OBJECT_ID":"2020-073AE","DECAY_DATE":null,"MEAN_ANOMALY":"239.5488","INCLINATION":"53.0561","TLE_LINE2":"2 46698  53.0561 314.1293 0001453 120.5644 239.5488 15.06402121101309","GP_ID":"210441543","SEMIMAJOR_AXIS":"6925.342","BSTAR":"0.00009890600000","FILE":"3539281","RA_OF_ASC_NODE":"314.1293"},{"COUNTRY_CODE":"US","EPOCH":"2022-08-18T10:51:22.824864","SITE":"AFETR","TLE_LINE1":"1 46699U 20073AF  22230.45234751  .00000056  00000-0  22655-4 0  9991","PERIAPSIS":"546.316","EPHEMERIS_TYPE":"0","REF_FRAME":"TEME","MEAN_MOTION_DDOT":"0.0000000000000","TIME_SYSTEM":"UTC","ELEMENT_SET_NO":"999","MEAN_MOTION_DOT":"0.00000056","PERIOD":"95.592","OBJECT_NAME":"STARLINK-1799","ECCENTRICITY":"0.00013030","MEAN_MOTION":"15.06398565","RCS_SIZE":"LARGE","APOAPSIS":"548.120","CLASSIFICATION_TYPE":"U","MEAN_ELEMENT_THEORY":"SGP4","REV_AT_EPOCH":"10130","CENTER_NAME":"EARTH","ARG_OF_PERICENTER":"99.2944","LAUNCH_DATE":"2020-10-18","OBJECT_TYPE":"PAYLOAD","MEAN_ANOMALY":"260.8193","DECAY_DATE":null,"OBJECT_ID":"2020-073AF","NORAD_CAT_ID":"46699","RA_OF_ASC_NODE":"314.1278","FILE":"3539281","TLE_LINE2":"2 46699  53.0552 314.1278 0001303  99.2944 260.8193 15.06398565101308","INCLINATION":"53.0552","BSTAR":"0.00002265500000","SEMIMAJOR_AXIS":"6925.353","GP_ID":"210440523"},{"BSTAR":"0.00034373000000","GP_ID":"210440044","SEMIMAJOR_AXIS":"6925.331","TLE_LINE2":"2 46700  53.0555 329.1116 0001346  87.7444 272.3699 15.06405810101092","INCLINATION":"53.0555","RA_OF_ASC_NODE":"329.1116","FILE":"3539281","OBJECT_ID":"2020-073AG","NORAD_CAT_ID":"46700","MEAN_ANOMALY":"272.3699","DECAY_DATE":null,"OBJECT_TYPE":"PAYLOAD","CENTER_NAME":"EARTH","LAUNCH_DATE":"2020-10-18","ARG_OF_PERICENTER":"87.7444","REV_AT_EPOCH":"10109","MEAN_ELEMENT_THEORY":"SGP4","CLASSIFICATION_TYPE":"U","APOAPSIS":"548.128","MEAN_MOTION":"15.06405810","RCS_SIZE":"LARGE","ECCENTRICITY":"0.00013460","PERIOD":"95.592","MEAN_MOTION_DOT":"0.00004843","OBJECT_NAME":"STARLINK-1800","TIME_SYSTEM":"UTC","ELEMENT_SET_NO":"999","MEAN_MOTION_DDOT":"0.0000000000000","REF_FRAME":"TEME","PERIAPSIS":"546.264","EPHEMERIS_TYPE":"0","SITE":"AFETR","TLE_LINE1":"1 46700U 20073AG  22230.45649462  .00004843  00000-0  34373-3 0  9990","COUNTRY_CODE":"US","EPOCH":"2022-08-18T10:57:21.135168"},{"OBJECT_ID":"2020-073AH","NORAD_CAT_ID":"46701","MEAN_ANOMALY":"276.3995","DECAY_DATE":null,"BSTAR":"0.00005073500000","SEMIMAJOR_AXIS":"6925.341","GP_ID":"210440293","TLE_LINE2":"2 46701  53.0547 313.9715 0001300  83.7142 276.3995 15.06402436101310","INCLINATION":"53.0547","RA_OF_ASC_NODE":"313.9715","FILE":"3539281","MEAN_ELEMENT_THEORY":"SGP4","CLASSIFICATION_TYPE":"U","OBJECT_TYPE":"PAYLOAD","CENTER_NAME":"EARTH","ARG_OF_PERICENTER":"83.7142","LAUNCH_DATE":"2020-10-18","REV_AT_EPOCH":"10131","TIME_SYSTEM":"UTC","ELEMENT_SET_NO":"999","MEAN_MOTION_DDOT":"0.0000000000000","REF_FRAME":"TEME","APOAPSIS":"548.106","RCS_SIZE":"LARGE","MEAN_MOTION":"15.06402436","PERIOD":"95.592","MEAN_MOTION_DOT":"0.00000474","ECCENTRICITY":"0.00013000","OBJECT_NAME":"STARLINK-1801","SITE":"AFETR","TLE_LINE1":"1 46701U 20073AH  22230.48920859  .00000474  00000-0  50735-4 0  9993","COUNTRY_CODE":"US","EPOCH":"2022-08-18T11:44:27.622176","PERIAPSIS":"546.306","EPHEMERIS_TYPE":"0"},{"REF_FRAME":"TEME","TIME_SYSTEM":"UTC","ELEMENT_SET_NO":"999","MEAN_MOTION_DDOT":"0.0000000000000","OBJECT_NAME":"STARLINK-1802","PERIOD":"95.592","MEAN_MOTION_DOT":"0.00001903","ECCENTRICITY":"0.00013470","APOAPSIS":"548.125","RCS_SIZE":"LARGE","MEAN_MOTION":"15.06407093","COUNTRY_CODE":"US","EPOCH":"2022-08-18T10:27:28.663488","SITE":"AFETR","TLE_LINE1":"1 46702U 20073AJ  22230.43574842  .00001903  00000-0  14661-3 0  9991","PERIAPSIS":"546.259","EPHEMERIS_TYPE":"0","MEAN_ANOMALY":"289.4833","DECAY_DATE":null,"OBJECT_ID":"2020-073AJ","NORAD_CAT_ID":"46702","FILE":"3539475","RA_OF_ASC_NODE":"294.2086","BSTAR":"0.00014661000000","SEMIMAJOR_AXIS":"6925.327","GP_ID":"210450245","TLE_LINE2":"2 46702  53.0534 294.2086 0001347  70.6302 289.4833 15.06407093102066","INCLINATION":"53.0534","CLASSIFICATION_TYPE":"U","MEAN_ELEMENT_THEORY":"SGP4","CENTER_NAME":"EARTH","LAUNCH_DATE":"2020-10-18","ARG_OF_PERICENTER":"70.6302","REV_AT_EPOCH":"10206","OBJECT_TYPE":"PAYLOAD"},{"PERIOD":"95.592","ECCENTRICITY":"0.00012770","MEAN_MOTION_DOT":"0.00001371","OBJECT_NAME":"STARLINK-1803","APOAPSIS":"548.088","MEAN_MOTION":"15.06403208","RCS_SIZE":"LARGE","REF_FRAME":"TEME","ELEMENT_SET_NO":"999","TIME_SYSTEM":"UTC","MEAN_MOTION_DDOT":"0.0000000000000","EPHEMERIS_TYPE":"0","PERIAPSIS":"546.319","EPOCH":"2022-08-18T20:45:50.790816","COUNTRY_CODE":"US","TLE_LINE1":"1 46703U 20073AK  22230.86517119  .00001371  00000-0  11093-3 0  9998","SITE":"AFETR","FILE":"3539615","RA_OF_ASC_NODE":"312.2609","SEMIMAJOR_AXIS":"6925.339","GP_ID":"210474525","BSTAR":"0.00011093000000","INCLINATION":"53.0554","TLE_LINE2":"2 46703  53.0554 312.2609 0001277  77.8236 282.2896 15.06403208101364","DECAY_DATE":null,"MEAN_ANOMALY":"282.2896","NORAD_CAT_ID":"46703","OBJECT_ID":"2020-073AK","ARG_OF_PERICENTER":"77.8236","LAUNCH_DATE":"2020-10-18","CENTER_NAME":"EARTH","REV_AT_EPOCH":"10136","OBJECT_TYPE":"PAYLOAD","CLASSIFICATION_TYPE":"U","MEAN_ELEMENT_THEORY":"SGP4"}];
